<?xml version="1.0" encoding="UTF-8"?>
<ndm xmlns:xsi="http://www.w3.org/2001/XMLSchema-instance" xsi:noNamespaceSchemaLocation="https://sanaregistry.org/r/ndmxml_unqualified/ndmxml-2.0.0-master-2.0.xsd">
<omm id="CCSDS_OMM_VERS" version="2.0">
<header><CREATION_DATE/><ORIGINATOR/></header><body><segment><metadata><OBJECT_NAME>ORBCOMM FM20</OBJECT_NAME><OBJECT_ID>1998-046D</OBJECT_ID><CENTER_NAME>EARTH</CENTER_NAME><REF_FRAME>TEME</REF_FRAME><TIME_SYSTEM>UTC</TIME_SYSTEM><MEAN_ELEMENT_THEORY>SGP4</MEAN_ELEMENT_THEORY></metadata><data><meanElements><EPOCH>2025-09-27T18:45:04.065120</EPOCH><MEAN_MOTION>14.37408756</MEAN_MOTION><ECCENTRICITY>.00014292</ECCENTRICITY><INCLINATION>44.9940</INCLINATION><RA_OF_ASC_NODE>55.3433</RA_OF_ASC_NODE><ARG_OF_PERICENTER>147.0345</ARG_OF_PERICENTER><MEAN_ANOMALY>213.0592</MEAN_ANOMALY></meanElements><tleParameters><EPHEMERIS_TYPE>0</EPHEMERIS_TYPE><CLASSIFICATION_TYPE>U</CLASSIFICATION_TYPE><NORAD_CAT_ID>25416</NORAD_CAT_ID><ELEMENT_SET_NO>999</ELEMENT_SET_NO><REV_AT_EPOCH>41902</REV_AT_EPOCH><BSTAR>.78119271E-3</BSTAR><MEAN_MOTION_DOT>.2215E-4</MEAN_MOTION_DOT><MEAN_MOTION_DDOT>0</MEAN_MOTION_DDOT></tleParameters></data></segment></body></omm>
<omm id="CCSDS_OMM_VERS" version="2.0">
<header><CREATION_DATE/><ORIGINATOR/></header><body><segment><metadata><OBJECT_NAME>ORBCOMM FM16</OBJECT_NAME><OBJECT_ID>1998-046E</OBJECT_ID><CENTER_NAME>EARTH</CENTER_NAME><REF_FRAME>TEME</REF_FRAME><TIME_SYSTEM>UTC</TIME_SYSTEM><MEAN_ELEMENT_THEORY>SGP4</MEAN_ELEMENT_THEORY></metadata><data><meanElements><EPOCH>2025-09-28T05:00:56.701440</EPOCH><MEAN_MOTION>14.39188396</MEAN_MOTION><ECCENTRICITY>.00045874</ECCENTRICITY><INCLINATION>44.9937</INCLINATION><RA_OF_ASC_NODE>43.5112</RA_OF_ASC_NODE><ARG_OF_PERICENTER>117.4906</ARG_OF_PERICENTER><MEAN_ANOMALY>242.6410</MEAN_ANOMALY></meanElements><tleParameters><EPHEMERIS_TYPE>0</EPHEMERIS_TYPE><CLASSIFICATION_TYPE>U</CLASSIFICATION_TYPE><NORAD_CAT_ID>25417</NORAD_CAT_ID><ELEMENT_SET_NO>999</ELEMENT_SET_NO><REV_AT_EPOCH>41909</REV_AT_EPOCH><BSTAR>.1084828E-2</BSTAR><MEAN_MOTION_DOT>.3251E-4</MEAN_MOTION_DOT><MEAN_MOTION_DDOT>0</MEAN_MOTION_DDOT></tleParameters></data></segment></body></omm>
<omm id="CCSDS_OMM_VERS" version="2.0">
<header><CREATION_DATE/><ORIGINATOR/></header><body><segment><metadata><OBJECT_NAME>ORBCOMM FM15</OBJECT_NAME><OBJECT_ID>1998-046F</OBJECT_ID><CENTER_NAME>EARTH</CENTER_NAME><REF_FRAME>TEME</REF_FRAME><TIME_SYSTEM>UTC</TIME_SYSTEM><MEAN_ELEMENT_THEORY>SGP4</MEAN_ELEMENT_THEORY></metadata><data><meanElements><EPOCH>2025-09-27T10:43:44.677632</EPOCH><MEAN_MOTION>14.38817035</MEAN_MOTION><ECCENTRICITY>.000433</ECCENTRICITY><INCLINATION>44.9969</INCLINATION><RA_OF_ASC_NODE>52.5841</RA_OF_ASC_NODE><ARG_OF_PERICENTER>113.2653</ARG_OF_PERICENTER><MEAN_ANOMALY>246.8652</MEAN_ANOMALY></meanElements><tleParameters><EPHEMERIS_TYPE>0</EPHEMERIS_TYPE><CLASSIFICATION_TYPE>U</CLASSIFICATION_TYPE><NORAD_CAT_ID>25418</NORAD_CAT_ID><ELEMENT_SET_NO>999</ELEMENT_SET_NO><REV_AT_EPOCH>41897</REV_AT_EPOCH><BSTAR>.90689541E-3</BSTAR><MEAN_MOTION_DOT>.2673E-4</MEAN_MOTION_DOT><MEAN_MOTION_DDOT>0</MEAN_MOTION_DDOT></tleParameters></data></segment></body></omm>
<omm id="CCSDS_OMM_VERS" version="2.0">
<header><CREATION_DATE/><ORIGINATOR/></header><body><segment><metadata><OBJECT_NAME>ORBCOMM FM14</OBJECT_NAME><OBJECT_ID>1998-046G</OBJECT_ID><CENTER_NAME>EARTH</CENTER_NAME><REF_FRAME>TEME</REF_FRAME><TIME_SYSTEM>UTC</TIME_SYSTEM><MEAN_ELEMENT_THEORY>SGP4</MEAN_ELEMENT_THEORY></metadata><data><meanElements><EPOCH>2025-09-27T18:51:22.721760</EPOCH><MEAN_MOTION>14.39203725</MEAN_MOTION><ECCENTRICITY>.00031119</ECCENTRICITY><INCLINATION>44.9957</INCLINATION><RA_OF_ASC_NODE>48.9129</RA_OF_ASC_NODE><ARG_OF_PERICENTER>117.9500</ARG_OF_PERICENTER><MEAN_ANOMALY>242.1664</MEAN_ANOMALY></meanElements><tleParameters><EPHEMERIS_TYPE>0</EPHEMERIS_TYPE><CLASSIFICATION_TYPE>U</CLASSIFICATION_TYPE><NORAD_CAT_ID>25419</NORAD_CAT_ID><ELEMENT_SET_NO>999</ELEMENT_SET_NO><REV_AT_EPOCH>41899</REV_AT_EPOCH><BSTAR>.93784731E-3</BSTAR><MEAN_MOTION_DOT>.2792E-4</MEAN_MOTION_DOT><MEAN_MOTION_DDOT>0</MEAN_MOTION_DDOT></tleParameters></data></segment></body></omm>
<omm id="CCSDS_OMM_VERS" version="2.0">
<header><CREATION_DATE/><ORIGINATOR/></header><body><segment><metadata><OBJECT_NAME>ORBCOMM FM13</OBJECT_NAME><OBJECT_ID>1998-046H</OBJECT_ID><CENTER_NAME>EARTH</CENTER_NAME><REF_FRAME>TEME</REF_FRAME><TIME_SYSTEM>UTC</TIME_SYSTEM><MEAN_ELEMENT_THEORY>SGP4</MEAN_ELEMENT_THEORY></metadata><data><meanElements><EPOCH>2025-09-27T18:45:54.866592</EPOCH><MEAN_MOTION>14.37904181</MEAN_MOTION><ECCENTRICITY>.0004833</ECCENTRICITY><INCLINATION>44.9970</INCLINATION><RA_OF_ASC_NODE>57.9215</RA_OF_ASC_NODE><ARG_OF_PERICENTER>87.9893</ARG_OF_PERICENTER><MEAN_ANOMALY>272.1509</MEAN_ANOMALY></meanElements><tleParameters><EPHEMERIS_TYPE>0</EPHEMERIS_TYPE><CLASSIFICATION_TYPE>U</CLASSIFICATION_TYPE><NORAD_CAT_ID>25420</NORAD_CAT_ID><ELEMENT_SET_NO>999</ELEMENT_SET_NO><REV_AT_EPOCH>41800</REV_AT_EPOCH><BSTAR>.84037403E-3</BSTAR><MEAN_MOTION_DOT>.2419E-4</MEAN_MOTION_DOT><MEAN_MOTION_DDOT>0</MEAN_MOTION_DDOT></tleParameters></data></segment></body></omm>
<omm id="CCSDS_OMM_VERS" version="2.0">
<header><CREATION_DATE/><ORIGINATOR/></header><body><segment><metadata><OBJECT_NAME>ORBCOMM FM21</OBJECT_NAME><OBJECT_ID>1998-053A</OBJECT_ID><CENTER_NAME>EARTH</CENTER_NAME><REF_FRAME>TEME</REF_FRAME><TIME_SYSTEM>UTC</TIME_SYSTEM><MEAN_ELEMENT_THEORY>SGP4</MEAN_ELEMENT_THEORY></metadata><data><meanElements><EPOCH>2025-09-28T00:29:55.940640</EPOCH><MEAN_MOTION>14.37546394</MEAN_MOTION><ECCENTRICITY>.00023798</ECCENTRICITY><INCLINATION>45.0076</INCLINATION><RA_OF_ASC_NODE>142.4443</RA_OF_ASC_NODE><ARG_OF_PERICENTER>21.2618</ARG_OF_PERICENTER><MEAN_ANOMALY>338.8329</MEAN_ANOMALY></meanElements><tleParameters><EPHEMERIS_TYPE>0</EPHEMERIS_TYPE><CLASSIFICATION_TYPE>U</CLASSIFICATION_TYPE><NORAD_CAT_ID>25475</NORAD_CAT_ID><ELEMENT_SET_NO>999</ELEMENT_SET_NO><REV_AT_EPOCH>41204</REV_AT_EPOCH><BSTAR>.64759787E-3</BSTAR><MEAN_MOTION_DOT>.1817E-4</MEAN_MOTION_DOT><MEAN_MOTION_DDOT>0</MEAN_MOTION_DDOT></tleParameters></data></segment></body></omm>
<omm id="CCSDS_OMM_VERS" version="2.0">
<header><CREATION_DATE/><ORIGINATOR/></header><body><segment><metadata><OBJECT_NAME>ORBCOMM FM22</OBJECT_NAME><OBJECT_ID>1998-053B</OBJECT_ID><CENTER_NAME>EARTH</CENTER_NAME><REF_FRAME>TEME</REF_FRAME><TIME_SYSTEM>UTC</TIME_SYSTEM><MEAN_ELEMENT_THEORY>SGP4</MEAN_ELEMENT_THEORY></metadata><data><meanElements><EPOCH>2025-09-28T01:13:40.347552</EPOCH><MEAN_MOTION>14.38644075</MEAN_MOTION><ECCENTRICITY>.00040158</ECCENTRICITY><INCLINATION>45.0058</INCLINATION><RA_OF_ASC_NODE>136.3057</RA_OF_ASC_NODE><ARG_OF_PERICENTER>23.9198</ARG_OF_PERICENTER><MEAN_ANOMALY>336.1837</MEAN_ANOMALY></meanElements><tleParameters><EPHEMERIS_TYPE>0</EPHEMERIS_TYPE><CLASSIFICATION_TYPE>U</CLASSIFICATION_TYPE><NORAD_CAT_ID>25476</NORAD_CAT_ID><ELEMENT_SET_NO>999</ELEMENT_SET_NO><REV_AT_EPOCH>41208</REV_AT_EPOCH><BSTAR>.72360996E-3</BSTAR><MEAN_MOTION_DOT>.2096E-4</MEAN_MOTION_DOT><MEAN_MOTION_DDOT>0</MEAN_MOTION_DDOT></tleParameters></data></segment></body></omm>
<omm id="CCSDS_OMM_VERS" version="2.0">
<header><CREATION_DATE/><ORIGINATOR/></header><body><segment><metadata><OBJECT_NAME>ORBCOMM FM23</OBJECT_NAME><OBJECT_ID>1998-053C</OBJECT_ID><CENTER_NAME>EARTH</CENTER_NAME><REF_FRAME>TEME</REF_FRAME><TIME_SYSTEM>UTC</TIME_SYSTEM><MEAN_ELEMENT_THEORY>SGP4</MEAN_ELEMENT_THEORY></metadata><data><meanElements><EPOCH>2025-09-28T01:51:13.108320</EPOCH><MEAN_MOTION>14.37754205</MEAN_MOTION><ECCENTRICITY>.00033542</ECCENTRICITY><INCLINATION>45.0066</INCLINATION><RA_OF_ASC_NODE>144.1480</RA_OF_ASC_NODE><ARG_OF_PERICENTER>17.2891</ARG_OF_PERICENTER><MEAN_ANOMALY>342.8071</MEAN_ANOMALY></meanElements><tleParameters><EPHEMERIS_TYPE>0</EPHEMERIS_TYPE><CLASSIFICATION_TYPE>U</CLASSIFICATION_TYPE><NORAD_CAT_ID>25477</NORAD_CAT_ID><ELEMENT_SET_NO>999</ELEMENT_SET_NO><REV_AT_EPOCH>41220</REV_AT_EPOCH><BSTAR>.67325846E-3</BSTAR><MEAN_MOTION_DOT>.1903E-4</MEAN_MOTION_DOT><MEAN_MOTION_DDOT>0</MEAN_MOTION_DDOT></tleParameters></data></segment></body></omm>

</ndm>
