ORBCOMM FM20            
1 25416U 98046D   25270.78129705  .00002215  00000+0  78119-3 0  9998
2 25416  44.9940  55.3433 0001429 147.0345 213.0592 14.37408756419026
ORBCOMM FM16            
1 25417U 98046E   25271.20898960  .00003251  00000+0  10848-2 0  9998
2 25417  44.9937  43.5112 0004587 117.4906 242.6410 14.39188396419099
ORBCOMM FM15            
1 25418U 98046F   25270.44704488  .00002673  00000+0  90690-3 0  9996
2 25418  44.9969  52.5841 0004330 113.2653 246.8652 14.38817035418971
ORBCOMM FM14            
1 25419U 98046G   25270.78567965  .00002792  00000+0  93785-3 0  9991
2 25419  44.9957  48.9129 0003111 117.9500 242.1664 14.39203725418995
ORBCOMM FM13            
1 25420U 98046H   25270.78188503  .00002419  00000+0  84037-3 0  9996
2 25420  44.9970  57.9215 0004833  87.9893 272.1509 14.37904181418006
ORBCOMM FM21            
1 25475U 98053A   25271.02078635  .00001817  00000+0  64760-3 0  9998
2 25475  45.0076 142.4443 0002379  21.2618 338.8329 14.37546394412043
ORBCOMM FM22            
1 25476U 98053B   25271.05116143  .00002096  00000+0  72361-3 0  9995
2 25476  45.0058 136.3057 0004015  23.9198 336.1837 14.38644075412083
ORBCOMM FM23            
1 25477U 98053C   25271.07723505  .00001903  00000+0  67326-3 0  9995
2 25477  45.0066 144.1480 0003354  17.2891 342.8071 14.37754205412205
